[{"OBJECT_NAME":"STARLINK-5085","OBJECT_ID":"2023-014B","EPOCH":"2026-03-09T08:54:14.088096","MEAN_MOTION":14.98332586,"ECCENTRICITY":0.00029635,"INCLINATION":70.0002,"RA_OF_ASC_NODE":45.1506,"ARG_OF_PERICENTER":265.8444,"MEAN_ANOMALY":94.2376,"EPHEMERIS_TYPE":0,"CLASSIFICATION_TYPE":"U","NORAD_CAT_ID":55392,"ELEMENT_SET_NO":999,"REV_AT_EPOCH":17250,"BSTAR":0.00011549032,"MEAN_MOTION_DOT":1.285e-5,"MEAN_MOTION_DDOT":0},{"OBJECT_NAME":"PE2_FLT1 (TYVAK-0261)","OBJECT_ID":"2024-043H","EPOCH":"2026-03-09T22:11:30.005376","MEAN_MOTION":14.96611647,"ECCENTRICITY":0.00060821,"INCLINATION":97.8224,"RA_OF_ASC_NODE":199.4267,"ARG_OF_PERICENTER":22.6188,"MEAN_ANOMALY":337.53,"EPHEMERIS_TYPE":0,"CLASSIFICATION_TYPE":"U","NORAD_CAT_ID":59105,"ELEMENT_SET_NO":999,"REV_AT_EPOCH":10980,"BSTAR":0.00036312112,"MEAN_MOTION_DOT":4.08e-5,"MEAN_MOTION_DDOT":0}]
